[{"street":"3526 HIGH ST","city":"SACRAMENTO","zip":"95838","state":"CA","beds":"2","baths":"1"},
{"street":"51 OMAHA CT","city":"SACRAMENTO","zip":"95823","state":"CA","beds":"3","baths":"1"},
{"street":"2796 BRANCH ST","city":"SACRAMENTO","zip":"95815","state":"CA","beds":"2","baths":"1"},
{"street":"2805 JANETTE WAY","city":"SACRAMENTO","zip":"95815","state":"CA","beds":"2","baths":"1"},
{"street":"6001 MCMAHON DR","city":"SACRAMENTO","zip":"95824","state":"CA","beds":"2","baths":"1"},
{"street":"5828 PEPPERMILL CT","city":"SACRAMENTO","zip":"95841","state":"CA","beds":"3","baths":"1"},
{"street":"6048 OGDEN NASH WAY","city":"SACRAMENTO","zip":"95842","state":"CA","beds":"3","baths":"2"},
{"street":"2561 19TH AVE","city":"SACRAMENTO","zip":"95820","state":"CA","beds":"3","baths":"1"},
{"street":"11150 TRINITY RIVER DR Unit 114","city":"RANCHO CORDOVA","zip":"95670","state":"CA","beds":"2","baths":"2"},
{"street":"7325 10TH ST","city":"RIO LINDA","zip":"95673","state":"CA","beds":"3","baths":"2"},
{"street":"645 MORRISON AVE","city":"SACRAMENTO","zip":"95838","state":"CA","beds":"3","baths":"2"}]